0 THOR ABLESTAR DEB
1 00134U 61015U   13282.57302064  .00000085  00000-0  11367-3 0   551
2 00134 066.8803 279.3868 0088824 290.2547 205.1663 13.96350880658985
0 THOR ABLESTAR DEB
1 00134U 61015U   13287.14050517  .00000067  00000-0  10118-3 0   577
2 00134 066.8806 268.1659 0088888 287.2415 125.0176 13.96352834659624
0 THOR ABLESTAR DEB
1 00134U 61015U   13289.45150084  .00000080  00000-0  11024-3 0   586
2 00134 066.8809 262.4886 0088908 285.6941 221.9774 13.96353914659940
0 THOR ABLESTAR DEB
1 00134U 61015U   13291.45511953  .00000119  00000-0  13760-3 0   598
2 00134 066.8812 257.5666 0088952 284.3467 213.8194 13.96354504660228
0 THOR ABLESTAR DEB
1 00134U 61015U   13293.45895966  .00000160  00000-0  16622-3 0   607
2 00134 066.8813 252.6444 0088959 283.0106 206.7702 13.96355153660500
0 THOR ABLESTAR DEB
1 00134U 61015U   13295.46658544  .00000125  00000-0  14177-3 0   614
2 00134 066.8813 247.7129 0088951 281.6851 218.7390 13.96356380660787
